RADUGA 1 [-]            
1 08513U 75123A   22215.77965877  .00000019  00000+0  00000+0 0  9991
2 08513   6.4306 287.9130 0008423 213.1489 157.0254  1.00261845180643
RADUGA 2 [-]            
1 09416U 76092A   22215.80343005 -.00000062  00000+0  00000+0 0  9996
2 09416   7.0933 289.8896 0025369 357.9822  26.6331  1.00298297115168
RADUGA 3 [-]            
1 10159U 77071A   22216.00049368 -.00000329  00000+0  00000+0 0  9994
2 10159   7.7075 292.4638 0009771 229.9610 259.0067  1.00232054162882
RADUGA 4 [-]            
1 10987U 78073A   22215.79645402  .00000162  00000+0  00000+0 0  9996
2 10987   8.3308 295.9529 0007172 359.6616 341.1264  1.00272488105417
RADUGA 5 [-]            
1 11343U 79035A   22215.82527638 -.00000179  00000+0  00000+0 0  9995
2 11343   8.7889 298.6903 0007486 170.9087 225.4915  1.00271080115181
RADUGA 6 [-]            
1 11708U 80016A   22215.79994203  .00000080  00000+0  00000+0 0  9993
2 11708   9.1466 301.7385 0003690 191.9797 161.9203  1.00328949107986
RADUGA 7 [-]            
1 12003U 80081A   22215.06540649 -.00000206  00000+0  00000+0 0  9996
2 12003   9.3314 303.6832 0009698 254.6207 106.6579  1.00297123109246
RADUGA 8 [-]            
1 12351U 81027A   22215.74910545 -.00000198  00000+0  00000+0 0  9994
2 12351   9.6607 304.2693 0083071 227.8350 134.0803  1.00417870108360
RADUGA 9 [-]            
1 12618U 81069A   22214.86549328  .00000126  00000+0  00000+0 0  9995
2 12618   9.8795 307.2136 0005427 153.3199 209.2950  1.00329398114153
RADUGA 10 [-]           
1 12897U 81102A   22215.70535505 -.00000147  00000+0  00000+0 0  9992
2 12897   9.9629 308.1740 0006878 175.6005 163.8809  1.00291209103160
RADUGA 11 [-]           
1 13669U 82113A   22216.17271809 -.00000123  00000+0  00000+0 0  9993
2 13669  11.9960 321.8035 0037745 252.5446 113.9328  0.97709448107721
RADUGA 12 [-]           
1 13974U 83028A   22215.80203484  .00000003  00000+0  00000+0 0  9997
2 13974  11.0974 317.8899 0004360 128.2843 220.2859  1.00278186155208
RADUGA 13 [-]           
1 14307U 83088A   22215.00396743 -.00000115  00000+0  00000+0 0  9992
2 14307  12.2450 323.3630 0015264  49.3988 322.0605  0.98174849105060
RADUGA 14 [-]           
1 14725U 84016A   22215.80613325 -.00000195  00000+0  00000+0 0  9992
2 14725  11.3010 321.6306 0006644 139.7948 227.4164  1.00279301103934
RADUGA 15 [-]           
1 15057U 84063A   22215.74099458 -.00000356  00000+0  00000+0 0  9990
2 15057  11.4225 322.6209 0006835 156.3027 220.0541  1.00324799126935
RADUGA 16 [-]           
1 15946U 85070A   22215.50102525  .00000084  00000+0  00000+0 0  9997
2 15946  11.8795 327.2752 0003442 150.7782 202.0094  1.00276613108045
RADUGA 17 [-]           
1 16250U 85107A   22216.20746075 -.00000285  00000+0  00000+0 0  9993
2 16250  12.0009 328.6468 0015687 177.7904 181.0776  1.00149744137648
RADUGA 18 [-]           
1 16497U 86007A   22216.12479797 -.00000232  00000+0  00000+0 0  9993
2 16497  12.8066 331.3518 0076631 164.6354 193.7111  0.98814849131951
RADUGA 19 [-]           
1 17046U 86082A   22215.16924211 -.00000189  00000+0  00000+0 0  9997
2 17046  13.2327 335.2802 0015003 146.4263 212.9293  0.98461626128984
RADUGA 20 [-]           
1 17611U 87028A   22215.56924590 -.00000149  00000+0  00000+0 0  9996
2 17611  15.2430 338.8014 0032245 136.2884 217.6978  0.95962440124745
RADUGA 21 [-]           
1 18631U 87100A   22216.41505757  .00000117  00000+0  00000+0 0  9999
2 18631  13.3157 336.1442 0004742 127.8141 201.9170  1.00277539126918
RADUGA 22 [-]           
1 19596U 88095A   22215.73533862 -.00000340  00000+0  00000+0 0  9995
2 19596  13.2958 340.4243 0008747 135.4660 232.6012  1.00240011107486
RADUGA 23 [-]           
1 19928U 89030A   22215.00667064  .00000135  00000+0  00000+0 0  9997
2 19928  13.4407 342.2468 0023209 159.5436 207.5740  1.00315953120676
RADUGA-1 1 [-]          
1 20083U 89048A   22215.61716132 -.00000140  00000+0  00000+0 0  9995
2 20083  14.1909 345.2941 0023775 114.9549 264.7272  0.98710446117327
RADUGA 24 [-]           
1 20367U 89098A   22215.71844737 -.00000039  00000+0  00000+0 0  9996
2 20367  14.0124 344.5069 0003120 129.7262 166.4258  1.00206916118791
RADUGA 25 [-]           
1 20499U 90016A   22215.77735715 -.00000295  00000+0  00000+0 0  9999
2 20499  13.7817 345.1534 0006926 137.9597  51.2684  1.00200542118732
RADUGA 26 [-]           
1 21016U 90112A   22215.44233326  .00000015  00000+0  00000+0 0  9996
2 21016  14.0909 348.4116 0008623  95.4932  88.1916  1.00310390116089
RADUGA-1 2 [-]          
1 21038U 90116A   22215.44015325  .00000095  00000+0  00000+0 0  9999
2 21038  14.1284 348.4848 0009901 102.5647  69.1745  1.00257665 33166
RADUGA 27 [-]           
1 21132U 91014A   22216.07936187  .00000088  00000+0  00000+0 0  9992
2 21132  14.6386 348.0400 0005398 103.7166 266.9721  1.00270432115130
RADUGA 28 [-]           
1 21821U 91087A   22215.85695549 -.00000338  00000+0  00000+0 0  9995
2 21821  14.4012 351.7496 0009438 121.8749 253.2621  1.00213355112183
RADUGA 29 [-]           
1 22557U 93013A   22215.57894913  .00000124  00000+0  00000+0 0  9990
2 22557  14.6003 355.9273 0008603 110.4712  80.8098  1.00333415107500
RADUGA 30 [-]           
1 22836U 93062A   22215.58896045 -.00000119  00000+0  00000+0 0  9998
2 22836  14.6383 357.8977 0002038  61.3429 181.6881  1.00259260 31824
RADUGA-1 3 [-]          
1 22981U 94008A   22215.96434490 -.00000313  00000+0  00000+0 0  9990
2 22981  14.7151 359.0462 0005802 105.0654 295.5655  1.00257419104346
RADUGA 31 [-]           
1 23010U 94012A   22215.01015866  .00000067  00000+0  00000+0 0  9992
2 23010  14.6841 359.0515 0007007  96.8488 272.3474  1.00318911104173
RADUGA 32 [-]           
1 23448U 94087A   22215.58896042 -.00000123  00000+0  00000+0 0  9998
2 23448  14.6626   1.7551 0004861 181.1168  58.3737  1.00261921118704
RADUGA-1 4 [-]          
1 25642U 99010A   22215.07848656  .00000127  00000+0  00000+0 0  9992
2 25642  15.2114  13.3558 0000735 168.6804 193.4430  1.00287915 85772
RADUGA-1 5 [-]          
1 26477U 00049A   22215.58234995  .00000118  00000+0  00000+0 0  9994
2 26477  13.1527  18.1671 0006732  68.2706 118.9999  1.00266372 80245
RADUGA-1 6 [-]          
1 26936U 01045A   22216.08284990 -.00000094  00000+0  00000+0 0  9991
2 26936  13.3098  24.4685 0016354 157.8104 195.0102  0.97744650 74760
RADUGA-1 7 [-]          
1 28194U 04010A   22215.38408341 -.00000352  00000+0  00000+0 0  9991
2 28194  12.0217  31.3227 0002179 114.7789  72.8316  1.00255234 67241
RADUGA-1M 1 [-]         
1 32373U 07058A   22215.76299285  .00000096  00000+0  00000+0 0  9991
2 32373   6.9968  63.7431 0004952  28.5935 176.9760  0.99395273 38345
RADUGA-1 8 [-]          
1 34264U 09010A   22215.72896519  .00000093  00000+0  00000+0 0  9998
2 34264   9.3162  53.7497 0014707   6.1485 182.5707  0.99824546 49066
RADUGA-1M 2 [+]         
1 36358U 10002A   22215.82428226 -.00000176  00000+0  00000+0 0  9997
2 36358   0.0480 250.5385 0002623 272.5078 171.0256  1.00269374 35913
RADUGA-1M 3 [+]         
1 39375U 13062A   22216.51337466  .00000161  00000+0  00000+0 0  9993
2 39375   2.3480  89.2561 0002666 158.4072 285.1811  1.00273188 31969
